STARLINK-4186           
1 52880U 22062BC  22250.16667824 -.01057642  00000+0 -18468-1 0  9990
2 52880  53.2174   1.5536 0001556  33.4162 316.1257 15.52808420 13344
STARLINK-4192           
1 52881U 22062BD  22250.58334491 -.01058308  00000+0 -19129-1 0  9993
2 52881  53.2175 359.5491 0002179  27.0302 131.4982 15.51852990 13409
STARLINK-4181           
1 52882U 22062BE  22250.16667824 -.01057648  00000+0 -18459-1 0  9998
2 52882  53.2175   1.5763 0001520  34.6750 316.4900 15.52822267 13349
GLOBALSTAR FM15         
1 52888U 22064A   22250.20507445 -.00000128  00000+0  00000+0 0  9993
2 52888  51.9799 311.2669 0010208 156.4574 203.6798 13.37540984 10677
PVSAT                   
1 52894U 22065A   22250.39495167  .00000173  00000+0  47862-4 0  9999
2 52894  98.0312  38.8959 0009652   3.4422 356.6842 14.57469292 11377
KSLV-II DUMMY           
1 52895U 22065B   22250.35928396  .00000019  00000+0  13822-4 0  9999
2 52895  98.0324  38.9517 0008759  21.8136 338.3434 14.58142793 11385
STEP CUBE LAB-II        
1 52897U 22065D   22250.35567384  .00001024  00000+0  23098-3 0  9999
2 52897  98.0298  38.9464 0009435  25.8548 334.3153 14.58313762 10201
RANDEV                  
1 52898U 22065E   22250.49074572  .00000704  00000+0  16148-3 0  9999
2 52898  98.0312  39.0822 0008936  27.9641 332.2034 14.58379360  9941
SNUGLITE-II             
1 52899U 22065F   22250.49078669  .00000933  00000+0  21084-3 0  9990
2 52899  98.0302  39.0797 0008503  28.5753 331.5914 14.58406346  9655
MIMAN                   
1 52900U 22065G   22249.95094612  .00000402  00000+0  96726-4 0  9995
2 52900  98.0275  38.5383 0008465  22.4848 337.6719 14.58213909  9186
TIANXING-1              
1 52901U 22066A   22250.34221060  .00169784  12814-4  44774-3 0  9996
2 52901  96.7579 295.0708 0011591 254.8989 226.6443 15.94652144 12310
CMS-02 (GSAT 24)        
1 52903U 22067A   22250.47757549 -.00000277  00000+0  00000+0 0  9990
2 52903   0.0679 277.3179 0006379 189.8802 144.7734  1.00271199   796
MEASAT 3D               
1 52904U 22067B   22249.82287221 -.00000258  00000+0  00000+0 0  9992
2 52904   0.0595 306.3898 0001308 276.7855 150.4557  1.00270368   824
YAOGAN-35 02A           
1 52907U 22068A   22250.20340976  .00007173  00000+0  29829-3 0  9993
2 52907  34.9957 163.5656 0007716 252.0859 263.6464 15.23054283 11608
YAOGAN-35 02B           
1 52908U 22068B   22250.20011475  .00011174  00000+0  46321-3 0  9995
2 52908  34.9968 163.5402 0011927 288.4700 226.4611 15.23042277 11574
YAOGAN-35 03C           
1 52909U 22068C   22250.20377102  .00007942  00000+0  32942-3 0  9990
2 52909  34.9963 163.5713 0010660 236.2285 280.1596 15.23095114 11619
GAOFEN 12-3             
1 52912U 22069A   22250.38483733  .00001156  00000+0  15867-3 0  9990
2 52912  97.9828 137.4177 0000057 316.1682  43.9492 14.80275729 10606
NACHOS-1                
1 52917U 22015D   22250.36071542  .00038302  00000+0  49355-3 0  9997
2 52917  51.6416 286.2249 0003354 215.4257 144.6514 15.58631148 10999
SES-22                  
1 52933U 22071A   22249.62684601  .00000072  00000+0  00000+0 0  9993
2 52933   0.0471 278.1929 0002616 266.1941 251.9787  1.00272707   711
DS-EO                   
1 52935U 22072A   22250.40467751  .00002978  00000+0  17818-3 0  9995
2 52935   9.9984 292.3942 0007402 233.3129 126.6051 14.99694211 10336
NEUSAR                  
1 52937U 22072C   22250.38354057  .00004616  00000+0  30570-3 0  9999
2 52937   9.9865 292.2129 0007742 237.1750 122.7710 14.99850634 10366
WFOV (USA 332)          
1 52940U 22073A   22250.02063350 -.00000380  00000+0  00000+0 0  9994
2 52940   0.1536 105.6124 0000984 212.5013 154.5869  1.00263289   538
RECURVE                 
1 52944U 22074A   22249.02727241  .00007986  00000+0  33603-3 0  9990
2 52944  44.9956 121.0299 0002606 251.3885 108.6726 15.23891162 10024
NACHOS-2                
1 52945U 22074B   22249.80861315  .00007472  00000+0  31371-3 0  9998
2 52945  44.9977 116.6930 0002544 265.6598  94.4012 15.24049433 10140
SLINGSHOT 1             
1 52947U 22074D   22249.65450490  .00008403  00000+0  34541-3 0  9998
2 52947  44.9940 117.2352 0004427 240.4637 119.5803 15.24618714 10123
MISR-B-1                
1 52949U 22074F   22249.98811928  .00011873  00000+0  48212-3 0  9998
2 52949  44.9954 115.5279 0004862 257.7860 102.2478 15.24685074 10176
CTIM                    
1 52950U 22074G   22249.98921220  .00015198  00000+0  61434-3 0  9992
2 52950  45.0075 115.5715 0003445 287.7830  72.2846 15.24652303 10179
COSMOS 2557 [GLONASS-K] 
1 52984U 22075A   22250.41755986 -.00000083  00000+0  10000-3 0  9995
2 52984  64.8164   2.6652 0010996 278.4180  80.0492  2.13101935  1318
STARLINK-4260           
1 52986U 22076A   22250.16667824 -.01066429  00000+0 -45369-1 0  9995
2 52986  53.2173  78.6231 0001717  45.1712 175.4012 15.25492226 10140
STARLINK-4259           
1 52987U 22076B   22249.91667824  .00022950  00000+0  14563-2 0  9998
2 52987  53.2186  89.2509 0001883  58.4133 247.8525 15.08815847  9970
STARLINK-4291           
1 52988U 22076C   22250.50001157 -.01063030  00000+0 -45864-1 0  9991
2 52988  53.2174  77.0900 0001393  66.9656 197.4144 15.25020434 10190
STARLINK-4293           
1 52989U 22076D   22250.50001157  .00035973  00000+0  22685-2 0  9991
2 52989  53.2189  86.6263 0001887  55.2013 201.2839 15.08812759 10062
STARLINK-4286           
1 52990U 22076E   22250.16667824 -.00024997  00000+0 -15580-2 0  9996
2 52990  53.2199  88.1194 0001806  52.8044 212.1081 15.08838201 10018
STARLINK-4285           
1 52991U 22076F   22249.91667824  .00007255  00000+0  47358-3 0  9993
2 52991  53.2211  89.2405 0002032  57.8015 308.4633 15.08829697  9970
STARLINK-4269           
1 52992U 22076G   22249.91667824  .00020588  00000+0  13085-2 0  9997
2 52992  53.2212  89.2404 0001871  47.2478 339.0192 15.08821523  1306
STARLINK-4264           
1 52993U 22076H   22250.16667824 -.01067439  00000+0 -44632-1 0  9997
2 52993  53.2173  78.6361 0001804  39.7050 205.5288 15.26065618 10145
STARLINK-4256           
1 52994U 22076J   22250.58334491 -.01102429  00000+0 -47119-1 0  9997
2 52994  53.2174  76.7196 0001425  52.6164 334.5806 15.25440888 10202
STARLINK-4296           
1 52995U 22076K   22250.50001157 -.01062367  00000+0 -44237-1 0  9994
2 52995  53.2175  77.1156 0001557  44.7569 268.6378 15.26189113 10193
STARLINK-4295           
1 52996U 22076L   22250.50001157 -.01062330  00000+0 -44635-1 0  9997
2 52996  53.2175  77.1091 0001422  55.1639 246.2586 15.25893915 10191
STARLINK-4301           
1 52997U 22076M   22249.91667824 -.01067292  00000+0 -41558-1 0  9993
2 52997  53.2176  79.8317 0001745  35.5471 343.3147 15.28393455 10107
STARLINK-4254           
1 52998U 22076N   22250.16667824 -.01068582  00000+0 -43214-1 0  9997
2 52998  53.2173  78.6605 0001240  92.2576 196.8488 15.27166889 10149
STARLINK-4217           
1 52999U 22076P   22250.16667824 -.01068646  00000+0 -41593-1 0  9997
2 52999  53.2174  78.6868 0001157  82.6236 254.3020 15.28414925 10145
STARLINK-4194           
1 53000U 22076Q   22250.16667824 -.01068812  00000+0 -43132-1 0  9997
2 53000  53.2173  78.6617 0001605  43.3438 249.0140 15.27234199 10142
STARLINK-4190           
1 53001U 22076R   22250.16667824 -.01068549  00000+0 -41212-1 0  9992
2 53001  53.2174  78.6928 0001150  79.8515 267.8719 15.28710089 10142
STARLINK-4121           
1 53002U 22076S   22250.16667824 -.01068876  00000+0 -42748-1 0  9991
2 53002  53.2173  78.6681 0001446  50.7406 252.9657 15.27529447 10144
STARLINK-4255           
1 53003U 22076T   22250.16667824 -.01068345  00000+0 -40458-1 0  9999
2 53003  53.2174  78.7046 0001144  76.8176 292.0881 15.29300426 10140
STARLINK-4253           
1 53004U 22076U   22250.16667824 -.01068701  00000+0 -41975-1 0  9991
2 53004  53.2174  78.6806 0001169  86.8073 239.1829 15.28119735 10142
STARLINK-4288           
1 53005U 22076V   22250.16667824 -.01068184  00000+0 -40082-1 0  9995
2 53005  53.2174  78.7104 0001247  60.5855 318.7049 15.29595528 10146
STARLINK-4290           
1 53006U 22076W   22250.16667824 -.01068581  00000+0 -40838-1 0  9996
2 53006  53.2174  78.6986 0001281  57.3332 301.0501 15.29005300 10148
STARLINK-4215           
1 53007U 22076X   22250.16667824 -.01067808  00000+0 -39354-1 0  9999
2 53007  53.2174  78.7210 0001216  65.0818 335.0029 15.30172813 10141
STARLINK-4275           
1 53008U 22076Y   22250.16667824 -.01067962  00000+0 -39807-1 0  9994
2 53008  53.2174  78.7143 0001142  77.2619 309.7364 15.29810536 10148
STARLINK-4277           
1 53009U 22076Z   22250.58334491 -.01056679  00000+0 -10765-1 0  9997
2 53009  53.2168  72.5881 0001337  39.1694 312.9405 15.67214953 10267
STARLINK-4263           
1 53010U 22076AA  22250.16667824 -.01068238  00000+0 -39732-1 0  9991
2 53010  53.2174  78.7152 0001515  42.5499 347.4194 15.29877795 10146
STARLINK-4265           
1 53011U 22076AB  22250.16667824 -.01065718  00000+0 -10449-1 0  9996
2 53011  53.2173  74.6371 0000723 207.2760 312.6165 15.68175168 10190
STARLINK-4271           
1 53012U 22076AC  22250.16667824 -.01067539  00000+0 -38983-1 0  9993
2 53012  53.2174  78.7263 0001195  69.5343 340.5280 15.30467910 10148
STARLINK-4177           
1 53013U 22076AD  22250.16667824 -.01052676  00000+0 -10298-1 0  9999
2 53013  53.2173  74.6405 0001572  41.1224 120.7196 15.68187986 10196
STARLINK-4183           
1 53014U 22076AE  22250.16667824 -.01059573  00000+0 -10389-1 0  9994
2 53014  53.2173  74.6323 0000807 134.3535  24.2416 15.68157915 10198
STARLINK-4262           
1 53015U 22076AF  22250.16667824 -.01059383  00000+0 -10367-1 0  9990
2 53015  53.2173  74.6451 0000616  88.3950  74.7440 15.68206000 10195
STARLINK-4283           
1 53016U 22076AG  22250.16667824 -.01052592  00000+0 -10303-1 0  9996
2 53016  53.2173  74.6391 0001544  42.3593 118.1843 15.68174343 10197
